{
  "type": "FeatureCollection",
  "features": [
    {
      "type": "Feature",
      "properties": {
        "norad_id": 66746,
        "name": "TRANSPORTER-15CJ",
        "group": "last-30-days",
        "lat": 13.713919345458491,
        "lon": -107.94950159986622,
        "alt_km": 509.66001201590007,
        "timestamp": "2025-12-24T16:52:40.178594+00:00",
        "meta_object_name": "TRANSPORTER-15CJ",
        "meta_object_id": "2025-276CJ",
        "meta_epoch": "2025-12-23T05:20:14.518464",
        "meta_mean_motion": 15.17767855,
        "meta_eccentricity": 0.00063526,
        "meta_inclination": 97.3982,
        "meta_ra_of_asc_node": 68.7864,
        "meta_arg_of_pericenter": 180.4238,
        "meta_mean_anomaly": 179.6992,
        "meta_ephemeris_type": 0,
        "meta_classification_type": "U",
        "meta_norad_cat_id": 66746,
        "meta_element_set_no": 999,
        "meta_rev_at_epoch": 371,
        "meta_bstar": -0.0014121211,
        "meta_mean_motion_dot": -0.00028468,
        "meta_mean_motion_ddot": 0,
        "tle_line1": "1 66746U 25276CJ  25357.22239026 -.00028468  00000+0 -14121-2 0  9999",
        "tle_line2": "2 66746  97.3982  68.7864 0006352 180.4238 179.6992 15.17767855  3716"
      },
      "geometry": {
        "type": "Point",
        "coordinates": [
          -107.94950159986622,
          13.713919345458491
        ]
      }
    },
    {
      "type": "Feature",
      "properties": {
        "norad_id": 66747,
        "name": "W-SERIES 5",
        "group": "last-30-days",
        "lat": 7.773121961209274,
        "lon": -108.7134743590823,
        "alt_km": 514.38595936002,
        "timestamp": "2025-12-24T16:52:40.178624+00:00",
        "meta_object_name": "W-SERIES 5",
        "meta_object_id": "2025-276CK",
        "meta_epoch": "2025-12-24T08:00:03.000384",
        "meta_mean_motion": 15.1757398,
        "meta_eccentricity": 0.00014703,
        "meta_inclination": 97.4408,
        "meta_ra_of_asc_node": 69.9009,
        "meta_arg_of_pericenter": 199.7323,
        "meta_mean_anomaly": 112.8996,
        "meta_ephemeris_type": 0,
        "meta_classification_type": "U",
        "meta_norad_cat_id": 66747,
        "meta_element_set_no": 999,
        "meta_rev_at_epoch": 130,
        "meta_bstar": -0.0021954072,
        "meta_mean_motion_dot": -0.00043863,
        "meta_mean_motion_ddot": 0,
        "tle_line1": "1 66747U 25276CK  25358.33336806 -.00043863  00000+0 -21954-2 0  9995",
        "tle_line2": "2 66747  97.4408  69.9009 0001470 199.7323 112.8996 15.17573980  1309"
      },
      "geometry": {
        "type": "Point",
        "coordinates": [
          -108.7134743590823,
          7.773121961209274
        ]
      }
    },
    {
      "type": "Feature",
      "properties": {
        "norad_id": 66748,
        "name": "TRANSPORTER-15CL",
        "group": "last-30-days",
        "lat": -43.025736231831246,
        "lon": -116.72325271581803,
        "alt_km": 518.7833692112954,
        "timestamp": "2025-12-24T16:52:40.178640+00:00",
        "meta_object_name": "TRANSPORTER-15CL",
        "meta_object_id": "2025-276CL",
        "meta_epoch": "2025-12-24T04:49:25.409856",
        "meta_mean_motion": 15.18130934,
        "meta_eccentricity": 0.00016772,
        "meta_inclination": 97.4414,
        "meta_ra_of_asc_node": 69.7899,
        "meta_arg_of_pericenter": 100.422,
        "meta_mean_anomaly": 259.7203,
        "meta_ephemeris_type": 0,
        "meta_classification_type": "U",
        "meta_norad_cat_id": 66748,
        "meta_element_set_no": 999,
        "meta_rev_at_epoch": 386,
        "meta_bstar": 0.0011661203,
        "meta_mean_motion_dot": 0.00023791,
        "meta_mean_motion_ddot": 0,
        "tle_line1": "1 66748U 25276CL  25358.20098854  .00023791  00000+0  11661-2 0  9990",
        "tle_line2": "2 66748  97.4414  69.7899 0001677 100.4220 259.7203 15.18130934  3860"
      },
      "geometry": {
        "type": "Point",
        "coordinates": [
          -116.72325271581803,
          -43.025736231831246
        ]
      }
    },
    {
      "type": "Feature",
      "properties": {
        "norad_id": 66749,
        "name": "TRANSPORTER-15CM",
        "group": "last-30-days",
        "lat": -17.05300764439131,
        "lon": -112.027642099303,
        "alt_km": 515.8723928202735,
        "timestamp": "2025-12-24T16:52:40.178651+00:00",
        "meta_object_name": "TRANSPORTER-15CM",
        "meta_object_id": "2025-276CM",
        "meta_epoch": "2025-12-24T04:56:14.217504",
        "meta_mean_motion": 15.17895008,
        "meta_eccentricity": 0.00019686,
        "meta_inclination": 97.4399,
        "meta_ra_of_asc_node": 69.7806,
        "meta_arg_of_pericenter": 182.359,
        "meta_mean_anomaly": 177.7635,
        "meta_ephemeris_type": 0,
        "meta_classification_type": "U",
        "meta_norad_cat_id": 66749,
        "meta_element_set_no": 999,
        "meta_rev_at_epoch": 386,
        "meta_bstar": 0.00057574608,
        "meta_mean_motion_dot": 0.00011614,
        "meta_mean_motion_ddot": 0,
        "tle_line1": "1 66749U 25276CM  25358.20572011  .00011614  00000+0  57575-3 0  9999",
        "tle_line2": "2 66749  97.4399  69.7806 0001968 182.3590 177.7635 15.17895008  3860"
      },
      "geometry": {
        "type": "Point",
        "coordinates": [
          -112.027642099303,
          -17.05300764439131
        ]
      }
    },
    {
      "type": "Feature",
      "properties": {
        "norad_id": 66750,
        "name": "TRANSPORTER-15CN",
        "group": "last-30-days",
        "lat": -34.83765035869849,
        "lon": -114.92839403765058,
        "alt_km": 517.4441486511432,
        "timestamp": "2025-12-24T16:52:40.178663+00:00",
        "meta_object_name": "TRANSPORTER-15CN",
        "meta_object_id": "2025-276CN",
        "meta_epoch": "2025-12-24T06:26:29.652000",
        "meta_mean_motion": 15.18051603,
        "meta_eccentricity": 0.00022379,
        "meta_inclination": 97.4438,
        "meta_ra_of_asc_node": 69.8649,
        "meta_arg_of_pericenter": 148.4569,
        "meta_mean_anomaly": 211.68,
        "meta_ephemeris_type": 0,
        "meta_classification_type": "U",
        "meta_norad_cat_id": 66750,
        "meta_element_set_no": 999,
        "meta_rev_at_epoch": 387,
        "meta_bstar": 0.00055816894,
        "meta_mean_motion_dot": 0.00011308,
        "meta_mean_motion_ddot": 0,
        "tle_line1": "1 66750U 25276CN  25358.26839875  .00011308  00000+0  55817-3 0  9998",
        "tle_line2": "2 66750  97.4438  69.8649 0002237 148.4569 211.6800 15.18051603  3870"
      },
      "geometry": {
        "type": "Point",
        "coordinates": [
          -114.92839403765058,
          -34.83765035869849
        ]
      }
    },
    {
      "type": "Feature",
      "properties": {
        "norad_id": 66751,
        "name": "ICEYE-X58",
        "group": "last-30-days",
        "lat": -14.719304041903385,
        "lon": -111.6906717208063,
        "alt_km": 515.4918392232976,
        "timestamp": "2025-12-24T16:52:40.178673+00:00",
        "meta_object_name": "ICEYE-X58",
        "meta_object_id": "2025-276CP",
        "meta_epoch": "2025-12-24T04:56:49.119648",
        "meta_mean_motion": 15.17821038,
        "meta_eccentricity": 0.000245,
        "meta_inclination": 97.441,
        "meta_ra_of_asc_node": 69.7883,
        "meta_arg_of_pericenter": 199.7456,
        "meta_mean_anomaly": 160.3684,
        "meta_ephemeris_type": 0,
        "meta_classification_type": "U",
        "meta_norad_cat_id": 66751,
        "meta_element_set_no": 999,
        "meta_rev_at_epoch": 386,
        "meta_bstar": 0.00049752668,
        "meta_mean_motion_dot": 0.00010004,
        "meta_mean_motion_ddot": 0,
        "tle_line1": "1 66751U 25276CP  25358.20612407  .00010004  00000+0  49753-3 0  9997",
        "tle_line2": "2 66751  97.4410  69.7883 0002450 199.7456 160.3684 15.17821038  3866"
      },
      "geometry": {
        "type": "Point",
        "coordinates": [
          -111.6906717208063,
          -14.719304041903385
        ]
      }
    },
    {
      "type": "Feature",
      "properties": {
        "norad_id": 66752,
        "name": "ICEYE-X59",
        "group": "last-30-days",
        "lat": 3.0668551441981347,
        "lon": -109.32973222027154,
        "alt_km": 514.8407390833581,
        "timestamp": "2025-12-24T16:52:40.178686+00:00",
        "meta_object_name": "ICEYE-X59",
        "meta_object_id": "2025-276CQ",
        "meta_epoch": "2025-12-24T05:01:27.015744",
        "meta_mean_motion": 15.17621478,
        "meta_eccentricity": 0.00019168,
        "meta_inclination": 97.4404,
        "meta_ra_of_asc_node": 69.7838,
        "meta_arg_of_pericenter": 229.2772,
        "meta_mean_anomaly": 130.8295,
        "meta_ephemeris_type": 0,
        "meta_classification_type": "U",
        "meta_norad_cat_id": 66752,
        "meta_element_set_no": 999,
        "meta_rev_at_epoch": 386,
        "meta_bstar": 0.00053127703,
        "meta_mean_motion_dot": 0.00010627,
        "meta_mean_motion_ddot": 0,
        "tle_line1": "1 66752U 25276CQ  25358.20934046  .00010627  00000+0  53128-3 0  9996",
        "tle_line2": "2 66752  97.4404  69.7838 0001916 229.2772 130.8295 15.17621478  3862"
      },
      "geometry": {
        "type": "Point",
        "coordinates": [
          -109.32973222027154,
          3.0668551441981347
        ]
      }
    }
  ]
}